{
    "links": {
        "self": "http://www.neowsapp.com/rest/v1/neo/3892812?api_key=iIulBulltgU6a56xZRHN4H3l9WmuAYTsLGpBGhQ2"
    },
    "id": "3892812",
    "neo_reference_id": "3892812",
    "name": "(2019 VK5)",
    "designation": "2019 VK5",
    "nasa_jpl_url": "http://ssd.jpl.nasa.gov/sbdb.cgi?sstr=3892812",
    "absolute_magnitude_h": 22.7,
    "estimated_diameter": {
        "kilometers": {
            "estimated_diameter_min": 0.0766575574,
            "estimated_diameter_max": 0.1714115092
        },
        "meters": {
            "estimated_diameter_min": 76.6575573531,
            "estimated_diameter_max": 171.4115092306
        },
        "miles": {
            "estimated_diameter_min": 0.0476327831,
            "estimated_diameter_max": 0.1065101409
        },
        "feet": {
            "estimated_diameter_min": 251.5011804664,
            "estimated_diameter_max": 562.3737359442
        }
    },
    "is_potentially_hazardous_asteroid": false,
    "close_approach_data": [
        {
            "close_approach_date": "2012-11-27",
            "close_approach_date_full": "2012-Nov-27 01:02",
            "epoch_date_close_approach": 1353978120000,
            "relative_velocity": {
                "kilometers_per_second": "3.4685737747",
                "kilometers_per_hour": "12486.8655888921",
                "miles_per_hour": "7758.8526766091"
            },
            "miss_distance": {
                "astronomical": "0.3802736048",
                "lunar": "147.9264322672",
                "kilometers": "56888121.295301776",
                "miles": "35348639.4347094688"
            },
            "orbiting_body": "Earth"
        },
        {
            "close_approach_date": "2019-11-15",
            "close_approach_date_full": "2019-Nov-15 14:36",
            "epoch_date_close_approach": 1573828560000,
            "relative_velocity": {
                "kilometers_per_second": "3.8666829569",
                "kilometers_per_hour": "13920.0586448258",
                "miles_per_hour": "8649.3831062808"
            },
            "miss_distance": {
                "astronomical": "0.2993767861",
                "lunar": "116.4575697929",
                "kilometers": "44786129.528005607",
                "miles": "27828810.4496150966"
            },
            "orbiting_body": "Earth"
        },
        {
            "close_approach_date": "2026-11-09",
            "close_approach_date_full": "2026-Nov-09 01:32",
            "epoch_date_close_approach": 1794187920000,
            "relative_velocity": {
                "kilometers_per_second": "3.8572248215",
                "kilometers_per_hour": "13886.0093575724",
                "miles_per_hour": "8628.2262033205"
            },
            "miss_distance": {
                "astronomical": "0.3019831142",
                "lunar": "117.4714314238",
                "kilometers": "45176030.660286754",
                "miles": "28071083.7788510452"
            },
            "orbiting_body": "Earth"
        },
        {
            "close_approach_date": "2033-11-02",
            "close_approach_date_full": "2033-Nov-02 13:54",
            "epoch_date_close_approach": 2014552440000,
            "relative_velocity": {
                "kilometers_per_second": "3.8662536384",
                "kilometers_per_hour": "13918.5130981658",
                "miles_per_hour": "8648.4227636909"
            },
            "miss_distance": {
                "astronomical": "0.3399811292",
                "lunar": "132.2526592588",
                "kilometers": "50860452.768514804",
                "miles": "31603219.8895761352"
            },
            "orbiting_body": "Earth"
        },
        {
            "close_approach_date": "2040-10-23",
            "close_approach_date_full": "2040-Oct-23 17:23",
            "epoch_date_close_approach": 2234625780000,
            "relative_velocity": {
                "kilometers_per_second": "3.8197030045",
                "kilometers_per_hour": "13750.9308162129",
                "miles_per_hour": "8544.2936507741"
            },
            "miss_distance": {
                "astronomical": "0.4226498696",
                "lunar": "164.4107992744",
                "kilometers": "63227520.247937752",
                "miles": "39287759.2844628976"
            },
            "orbiting_body": "Earth"
        }
    ],
    "orbital_data": {
        "orbit_id": "1",
        "orbit_determination_date": "2019-11-11 13:42:15",
        "first_observation_date": "2019-09-24",
        "last_observation_date": "2019-11-09",
        "data_arc_in_days": 46,
        "observations_used": 20,
        "orbit_uncertainty": "6",
        "minimum_orbit_intersection": ".295494",
        "jupiter_tisserand_invariant": "3.434",
        "epoch_osculation": "2459000.5",
        "eccentricity": ".4484046968812004",
        "semi_major_axis": "2.309723505329861",
        "inclination": "7.311803704192271",
        "ascending_node_longitude": "21.06159941035082",
        "orbital_period": "1282.148763732754",
        "perihelion_distance": "1.274032637043041",
        "perihelion_argument": "35.4144546741092",
        "aphelion_distance": "3.345414373616681",
        "perihelion_time": "2458804.754399297188",
        "mean_anomaly": "54.96118566449003",
        "mean_motion": ".2807786507954992",
        "equinox": "J2000",
        "orbit_class": {
            "orbit_class_type": "AMO",
            "orbit_class_description": "Near-Earth asteroid orbits similar to that of 1221 Amor",
            "orbit_class_range": "1.017 AU < q (perihelion) < 1.3 AU"
        }
    },
    "is_sentry_object": false
}